start=new Date('2022-04-30T00:00:00.000Z').valueOf();
sats=[{"TLE_LINE1":"1 46694U 20073AA  22119.83915598  .00000388  00000-0  44942-4 0  9990","MEAN_MOTION_DOT":"0.00000388","APOAPSIS":"548.199","RCS_SIZE":"LARGE","CENTER_NAME":"EARTH","NORAD_CAT_ID":"46694","DECAY_DATE":null,"MEAN_MOTION":"15.06392998","INCLINATION":"53.0561","MEAN_MOTION_DDOT":"0.0000000000000","PERIOD":"95.593","TLE_LINE2":"2 46694  53.0561  70.6934 0001392 111.5587 248.5550 15.06392998 84916","SITE":"AFETR","FILE":"3421985","EPOCH":"2022-04-29T20:08:23.076672","BSTAR":"0.00004494200000","ECCENTRICITY":"0.00013920","REF_FRAME":"TEME","OBJECT_ID":"2020-073AA","COUNTRY_CODE":"US","GP_ID":"202310086","SEMIMAJOR_AXIS":"6925.370","PERIAPSIS":"546.271","ARG_OF_PERICENTER":"111.5587","CLASSIFICATION_TYPE":"U","LAUNCH_DATE":"2020-10-18","OBJECT_NAME":"STARLINK-1793","MEAN_ELEMENT_THEORY":"SGP4","OBJECT_TYPE":"PAYLOAD","RA_OF_ASC_NODE":"70.6934","TIME_SYSTEM":"UTC","EPHEMERIS_TYPE":"0","REV_AT_EPOCH":"8491","ELEMENT_SET_NO":"999","MEAN_ANOMALY":"248.5550"},{"PERIAPSIS":"545.798","ARG_OF_PERICENTER":"48.5825","GP_ID":"202310830","SEMIMAJOR_AXIS":"6925.358","CLASSIFICATION_TYPE":"U","MEAN_ELEMENT_THEORY":"SGP4","OBJECT_NAME":"STARLINK-1795","LAUNCH_DATE":"2020-10-18","RA_OF_ASC_NODE":"70.5983","OBJECT_TYPE":"PAYLOAD","ELEMENT_SET_NO":"999","MEAN_ANOMALY":"311.5340","EPHEMERIS_TYPE":"0","TIME_SYSTEM":"UTC","REV_AT_EPOCH":"8491","APOAPSIS":"548.648","RCS_SIZE":"LARGE","CENTER_NAME":"EARTH","MEAN_MOTION_DOT":"-0.00002345","TLE_LINE1":"1 46696U 20073AC  22119.85757174 -.00002345  00000-0 -13858-3 0  9996","MEAN_MOTION":"15.06396841","INCLINATION":"53.0557","DECAY_DATE":null,"NORAD_CAT_ID":"46696","FILE":"3421985","MEAN_MOTION_DDOT":"0.0000000000000","SITE":"AFETR","TLE_LINE2":"2 46696  53.0557  70.5983 0002058  48.5825 311.5340 15.06396841 84919","PERIOD":"95.592","COUNTRY_CODE":"US","OBJECT_ID":"2020-073AC","BSTAR":"-0.00013858000000","EPOCH":"2022-04-29T20:34:54.198336","REF_FRAME":"TEME","ECCENTRICITY":"0.00020580"},{"MEAN_MOTION":"15.06398384","INCLINATION":"53.0531","DECAY_DATE":null,"NORAD_CAT_ID":"46698","APOAPSIS":"548.474","RCS_SIZE":"LARGE","CENTER_NAME":"EARTH","TLE_LINE1":"1 46698U 20073AE  22119.64932416  .00000118  00000-0  26804-4 0  9999","MEAN_MOTION_DOT":"0.00000118","OBJECT_ID":"2020-073AE","COUNTRY_CODE":"US","BSTAR":"0.00002680400000","EPOCH":"2022-04-29T15:35:01.607424","ECCENTRICITY":"0.00018130","REF_FRAME":"TEME","FILE":"3421985","MEAN_MOTION_DDOT":"0.0000000000000","PERIOD":"95.592","SITE":"AFETR","TLE_LINE2":"2 46698  53.0531  91.5279 0001813  61.1968 298.9203 15.06398384 84607","CLASSIFICATION_TYPE":"U","LAUNCH_DATE":"2020-10-18","OBJECT_NAME":"STARLINK-1797","MEAN_ELEMENT_THEORY":"SGP4","PERIAPSIS":"545.963","ARG_OF_PERICENTER":"61.1968","SEMIMAJOR_AXIS":"6925.354","GP_ID":"202309579","ELEMENT_SET_NO":"999","MEAN_ANOMALY":"298.9203","TIME_SYSTEM":"UTC","EPHEMERIS_TYPE":"0","REV_AT_EPOCH":"8460","RA_OF_ASC_NODE":"91.5279","OBJECT_TYPE":"PAYLOAD"},{"LAUNCH_DATE":"2020-10-18","OBJECT_NAME":"STARLINK-1799","MEAN_ELEMENT_THEORY":"SGP4","CLASSIFICATION_TYPE":"U","ARG_OF_PERICENTER":"58.7938","PERIAPSIS":"546.037","SEMIMAJOR_AXIS":"6925.341","GP_ID":"202309829","MEAN_ANOMALY":"301.3216","ELEMENT_SET_NO":"999","REV_AT_EPOCH":"8460","EPHEMERIS_TYPE":"0","TIME_SYSTEM":"UTC","OBJECT_TYPE":"PAYLOAD","RA_OF_ASC_NODE":"91.5250","INCLINATION":"53.0531","MEAN_MOTION":"15.06402596","DECAY_DATE":null,"NORAD_CAT_ID":"46699","RCS_SIZE":"LARGE","CENTER_NAME":"EARTH","APOAPSIS":"548.375","TLE_LINE1":"1 46699U 20073AF  22119.65300613  .00001219  00000-0  10069-3 0  9997","MEAN_MOTION_DOT":"0.00001219","OBJECT_ID":"2020-073AF","COUNTRY_CODE":"US","ECCENTRICITY":"0.00016880","REF_FRAME":"TEME","BSTAR":"0.00010069000000","EPOCH":"2022-04-29T15:40:19.729632","FILE":"3421985","PERIOD":"95.592","TLE_LINE2":"2 46699  53.0531  91.5250 0001688  58.7938 301.3216 15.06402596 84600","SITE":"AFETR","MEAN_MOTION_DDOT":"0.0000000000000"},{"RA_OF_ASC_NODE":"107.6885","OBJECT_TYPE":"PAYLOAD","REV_AT_EPOCH":"8435","EPHEMERIS_TYPE":"0","TIME_SYSTEM":"UTC","MEAN_ANOMALY":"304.9963","ELEMENT_SET_NO":"999","GP_ID":"202274260","SEMIMAJOR_AXIS":"6925.328","ARG_OF_PERICENTER":"55.1217","PERIAPSIS":"545.781","MEAN_ELEMENT_THEORY":"SGP4","LAUNCH_DATE":"2020-10-18","OBJECT_NAME":"STARLINK-1800","CLASSIFICATION_TYPE":"U","SITE":"AFETR","TLE_LINE2":"2 46700  53.0550 107.6885 0002039  55.1217 304.9963 15.06406691 84359","PERIOD":"95.592","MEAN_MOTION_DDOT":"0.0000000000000","FILE":"3421553","REF_FRAME":"TEME","ECCENTRICITY":"0.00020390","EPOCH":"2022-04-29T09:24:08.751744","BSTAR":"0.00079433000000","COUNTRY_CODE":"US","OBJECT_ID":"2020-073AG","MEAN_MOTION_DOT":"0.00011572","TLE_LINE1":"1 46700U 20073AG  22119.39176796  .00011572  00000-0  79433-3 0  9997","RCS_SIZE":"LARGE","CENTER_NAME":"EARTH","APOAPSIS":"548.605","DECAY_DATE":null,"NORAD_CAT_ID":"46700","INCLINATION":"53.0550","MEAN_MOTION":"15.06406691"},{"APOAPSIS":"548.511","RCS_SIZE":"LARGE","CENTER_NAME":"EARTH","MEAN_MOTION_DOT":"-0.00000307","TLE_LINE1":"1 46701U 20073AH  22119.62352525 -.00000307  00000-0 -17239-5 0  9994","MEAN_MOTION":"15.06393478","INCLINATION":"53.0563","NORAD_CAT_ID":"46701","DECAY_DATE":null,"FILE":"3421985","MEAN_MOTION_DDOT":"0.0000000000000","SITE":"AFETR","TLE_LINE2":"2 46701  53.0563  91.6583 0001844  47.3157 312.7987 15.06393478 84609","PERIOD":"95.593","COUNTRY_CODE":"US","OBJECT_ID":"2020-073AH","EPOCH":"2022-04-29T14:57:52.581600","BSTAR":"-0.00000172390000","REF_FRAME":"TEME","ECCENTRICITY":"0.00018440","PERIAPSIS":"545.957","ARG_OF_PERICENTER":"47.3157","GP_ID":"202310337","SEMIMAJOR_AXIS":"6925.369","CLASSIFICATION_TYPE":"U","MEAN_ELEMENT_THEORY":"SGP4","LAUNCH_DATE":"2020-10-18","OBJECT_NAME":"STARLINK-1801","OBJECT_TYPE":"PAYLOAD","RA_OF_ASC_NODE":"91.6583","ELEMENT_SET_NO":"999","MEAN_ANOMALY":"312.7987","EPHEMERIS_TYPE":"0","TIME_SYSTEM":"UTC","REV_AT_EPOCH":"8460"},{"CLASSIFICATION_TYPE":"U","LAUNCH_DATE":"2020-10-18","OBJECT_NAME":"STARLINK-1802","MEAN_ELEMENT_THEORY":"SGP4","PERIAPSIS":"545.864","ARG_OF_PERICENTER":"50.8921","SEMIMAJOR_AXIS":"6925.342","GP_ID":"202309086","ELEMENT_SET_NO":"999","MEAN_ANOMALY":"309.2240","EPHEMERIS_TYPE":"0","TIME_SYSTEM":"UTC","REV_AT_EPOCH":"8491","OBJECT_TYPE":"PAYLOAD","RA_OF_ASC_NODE":"70.7080","MEAN_MOTION":"15.06402102","INCLINATION":"53.0541","DECAY_DATE":null,"NORAD_CAT_ID":"46702","APOAPSIS":"548.550","CENTER_NAME":"EARTH","RCS_SIZE":"LARGE","TLE_LINE1":"1 46702U 20073AJ  22119.83545876 -.00001568  00000-0 -86382-4 0  9995","MEAN_MOTION_DOT":"-0.00001568","OBJECT_ID":"2020-073AJ","COUNTRY_CODE":"US","BSTAR":"-0.00008638200000","EPOCH":"2022-04-29T20:03:03.636864","ECCENTRICITY":"0.00019390","REF_FRAME":"TEME","FILE":"3421985","MEAN_MOTION_DDOT":"0.0000000000000","PERIOD":"95.592","SITE":"AFETR","TLE_LINE2":"2 46702  53.0541  70.7080 0001939  50.8921 309.2240 15.06402102 84911"},{"MEAN_ELEMENT_THEORY":"SGP4","OBJECT_NAME":"STARLINK-1803","LAUNCH_DATE":"2020-10-18","CLASSIFICATION_TYPE":"U","ARG_OF_PERICENTER":"53.7598","PERIAPSIS":"545.858","GP_ID":"202309336","SEMIMAJOR_AXIS":"6925.335","MEAN_ANOMALY":"306.3570","ELEMENT_SET_NO":"999","REV_AT_EPOCH":"8463","EPHEMERIS_TYPE":"0","TIME_SYSTEM":"UTC","OBJECT_TYPE":"PAYLOAD","RA_OF_ASC_NODE":"90.5496","INCLINATION":"53.0534","MEAN_MOTION":"15.06404428","DECAY_DATE":null,"NORAD_CAT_ID":"46703","CENTER_NAME":"EARTH","RCS_SIZE":"LARGE","APOAPSIS":"548.542","MEAN_MOTION_DOT":"0.00000626","TLE_LINE1":"1 46703U 20073AK  22119.86679469  .00000626  00000-0  60905-4 0  9990","COUNTRY_CODE":"US","OBJECT_ID":"2020-073AK","REF_FRAME":"TEME","ECCENTRICITY":"0.00019380","EPOCH":"2022-04-29T20:48:11.061216","BSTAR":"0.00006090500000","FILE":"3421985","TLE_LINE2":"2 46703  53.0534  90.5496 0001938  53.7598 306.3570 15.06404428 84632","SITE":"AFETR","PERIOD":"95.592","MEAN_MOTION_DDOT":"0.0000000000000"},{"RCS_SIZE":"LARGE","CENTER_NAME":"EARTH","APOAPSIS":"548.196","TLE_LINE1":"1 46704U 20073AL  22119.84652543  .00000967  00000-0  83809-4 0  9999","MEAN_MOTION_DOT":"0.00000967","INCLINATION":"53.0552","MEAN_MOTION":"15.06395037","DECAY_DATE":null,"NORAD_CAT_ID":"46704","FILE":"3421985","PERIOD":"95.592","SITE":"AFETR","TLE_LINE2":"2 46704  53.0552  70.6544 0001397  61.9991 298.1139 15.06395037 84918","MEAN_MOTION_DDOT":"0.0000000000000","OBJECT_ID":"2020-073AL","COUNTRY_CODE":"US","ECCENTRICITY":"0.00013970","REF_FRAME":"TEME","BSTAR":"0.00008380900000","EPOCH":"2022-04-29T20:18:59.797152","ARG_OF_PERICENTER":"61.9991","PERIAPSIS":"546.261","SEMIMAJOR_AXIS":"6925.364","GP_ID":"202310087","OBJECT_NAME":"STARLINK-1804","LAUNCH_DATE":"2020-10-18","MEAN_ELEMENT_THEORY":"SGP4","CLASSIFICATION_TYPE":"U","OBJECT_TYPE":"PAYLOAD","RA_OF_ASC_NODE":"70.6544","MEAN_ANOMALY":"298.1139","ELEMENT_SET_NO":"999","REV_AT_EPOCH":"8491","EPHEMERIS_TYPE":"0","TIME_SYSTEM":"UTC"},{"MEAN_MOTION_DOT":"0.00001414","TLE_LINE1":"1 46705U 20073AM  22119.46180101  .00001414  00000-0  11380-3 0  9996","CENTER_NAME":"EARTH","RCS_SIZE":"LARGE","APOAPSIS":"548.576","DECAY_DATE":null,"NORAD_CAT_ID":"46705","INCLINATION":"53.0547","MEAN_MOTION":"15.06402091","TLE_LINE2":"2 46705  53.0547 107.3637 0001976  47.1959 312.9196 15.06402091 84363","SITE":"AFETR","PERIOD":"95.592","MEAN_MOTION_DDOT":"0.0000000000000","FILE":"3421553","REF_FRAME":"TEME","ECCENTRICITY":"0.00019760","BSTAR":"0.00011380000000","EPOCH":"2022-04-29T11:04:59.607264","COUNTRY_CODE":"US","OBJECT_ID":"2020-073AM","SEMIMAJOR_AXIS":"6925.342","GP_ID":"202275010","ARG_OF_PERICENTER":"47.1959","PERIAPSIS":"545.839","MEAN_ELEMENT_THEORY":"SGP4","OBJECT_NAME":"STARLINK-1805","LAUNCH_DATE":"2020-10-18","CLASSIFICATION_TYPE":"U","OBJECT_TYPE":"PAYLOAD","RA_OF_ASC_NODE":"107.3637","REV_AT_EPOCH":"8436","EPHEMERIS_TYPE":"0","TIME_SYSTEM":"UTC","MEAN_ANOMALY":"312.9196","ELEMENT_SET_NO":"999"}];
